OBJECT_NAME,OBJECT_ID,EPOCH,MEAN_MOTION,ECCENTRICITY,INCLINATION,RA_OF_ASC_NODE,ARG_OF_PERICENTER,MEAN_ANOMALY,EPHEMERIS_TYPE,CLASSIFICATION_TYPE,NORAD_CAT_ID,ELEMENT_SET_NO,REV_AT_EPOCH,BSTAR,MEAN_MOTION_DOT,MEAN_MOTION_DDOT
FENGYUN 3D,2017-072A,2026-07-15T04:42:37.713312,14.19745800,.0001539,99.0137,171.1272,14.2282,345.8936,0,U,43010,999,44896,.21299E-3,.405E-5,0
NOAA 20 (JPSS-1),2017-073A,2026-07-15T03:00:30.388608,14.19516423,.0001386,98.7772,135.3404,124.8227,235.3079,0,U,43013,999,44843,.23989E-4,.6E-7,0
GOES 17,2018-022A,2026-07-15T02:40:45.314976,1.00271073,.0000546,1.0066,85.2588,80.6796,77.7183,0,U,43226,999,3070,0,-.192E-5,0
SENTINEL-3B,2018-039A,2026-07-15T04:06:59.118048,14.26736282,.0001135,98.6236,263.3004,119.7364,240.3929,0,U,43437,999,42811,.33813E-4,.38E-6,0
FENGYUN 2H,2018-050A,2026-07-15T01:46:12.400032,1.00267153,.0002319,3.1003,78.7376,134.4195,185.4544,0,U,43491,999,2971,0,-.138E-5,0
METOP-C,2018-087A,2026-07-15T03:39:40.116096,14.21519056,.0002217,98.6630,255.2429,93.7709,266.3722,0,U,43689,999,39880,.40694E-4,.46E-6,0
GEO-KOMPSAT-2A,2018-100A,2026-07-14T17:27:00.252000,1.00269956,.00019612,0.0287,108.8702,352.7689,220.9550,0,U,43823,999,2790,0,-.352E-5,0
METEOR-M2 2,2019-038A,2026-07-15T04:51:42.161184,14.24373215,.0000755,98.9152,183.9034,3.3896,356.7288,0,U,44387,999,36528,.61274E-4,.96E-6,0
ARKTIKA-M 1,2021-016A,2026-07-14T09:46:38.558208,2.00611590,.7297332,63.2662,53.6722,270.0591,14.4994,0,U,47719,999,3933,0,-.301E-5,0
FENGYUN 3E,2021-062A,2026-07-15T04:14:56.650848,14.19906463,.0002278,98.7495,199.2735,39.2029,320.9312,0,U,49008,999,26055,-.12976E-6,-.44E-6,0
GOES 18,2022-021A,2026-07-14T23:01:46.817760,1.00270846,.00004,0.0194,126.7770,62.2107,312.2647,0,U,51850,999,687,0,.88E-6,0
NOAA 21 (JPSS-2),2022-150A,2026-07-15T03:47:01.000608,14.19541003,.0002836,98.7060,134.4771,104.6678,255.4813,0,U,54234,999,19051,.21595E-4,.2E-7,0
METEOSAT-12 (MTG-I1),2022-170C,2026-07-15T03:06:09.321984,1.00267673,.0003806,0.7250,19.6891,82.0469,237.4624,0,U,54743,999,1325,0,-.18E-6,0
TIANMU-1 03,2023-039A,2026-07-15T04:12:14.655168,15.48042065,.000258,97.5236,11.2576,27.1290,333.0094,0,U,55973,999,18516,.16853E-3,.8724E-4,0
TIANMU-1 04,2023-039B,2026-07-15T05:14:13.905600,15.48669436,.0003039,97.5175,10.4583,12.7593,347.3733,0,U,55974,999,18518,.18136E-3,.9605E-4,0
TIANMU-1 05,2023-039C,2026-07-15T05:19:36.659712,15.47967878,.000296,97.5220,10.9106,45.5126,314.6365,0,U,55975,999,18515,.17243E-3,.8905E-4,0
TIANMU-1 06,2023-039D,2026-07-15T05:21:41.954400,15.48566341,.0003059,97.5228,11.5763,36.8367,323.3093,0,U,55976,999,18518,.17853E-3,.9419E-4,0
FENGYUN 3G,2023-055A,2026-07-15T03:43:59.150208,15.53786933,.0007042,49.9903,201.7792,55.6665,304.4968,0,U,56232,999,18435,.23916E-3,.15227E-3,0
METEOR-M2 3,2023-091A,2026-07-15T04:52:50.735136,14.24048940,.0005144,98.6068,250.6062,90.2704,269.9065,0,U,57166,999,15850,.15238E-4,-.8E-7,0
TIANMU-1 07,2023-101A,2026-07-15T03:47:39.287040,15.30115492,.0003761,97.2577,246.1871,64.9212,295.2419,0,U,57399,999,16592,.12419E-3,.3545E-4,0
TIANMU-1 08,2023-101B,2026-07-15T04:33:40.967136,15.30119027,.0004629,97.2566,245.9848,46.3529,313.8095,0,U,57400,999,16592,.12069E-3,.3444E-4,0
TIANMU-1 09,2023-101C,2026-07-15T04:08:51.583200,15.30160476,.0004358,97.2524,245.3696,64.9775,295.1918,0,U,57401,999,16592,.12587E-3,.36E-4,0
TIANMU-1 10,2023-101D,2026-07-15T04:57:09.595584,15.30134087,.0005652,97.2603,246.4815,54.2484,305.9282,0,U,57402,999,16592,.12766E-3,.3649E-4,0
FENGYUN 3F,2023-111A,2026-07-15T03:50:48.890112,14.19943403,.0001276,98.6825,265.6462,76.1787,283.9532,0,U,57490,999,15283,.27334E-4,.15E-6,0
ARKTIKA-M 2,2023-198A,2026-07-14T04:16:23.945088,2.00608202,.6910425,63.2180,151.3455,267.3421,18.7368,0,U,58584,999,1886,0,.133E-5,0
TIANMU-1 11,2023-205A,2026-07-15T05:29:38.065920,15.27263888,.0006787,97.3439,217.3497,261.7694,98.2776,0,U,58645,999,14180,.11103E-3,.2894E-4,0
TIANMU-1 12,2023-205B,2026-07-15T04:49:53.717952,15.27095401,.0005799,97.3429,217.0695,234.5320,125.5379,0,U,58646,999,14178,.11643E-3,.3022E-4,0
TIANMU-1 13,2023-205C,2026-07-15T05:38:03.103296,15.27088398,.0005804,97.3456,217.3824,212.0674,148.0213,0,U,58647,999,14178,.11849E-3,.3076E-4,0
TIANMU-1 14,2023-205D,2026-07-15T05:15:34.574688,15.27131988,.0006435,97.3392,216.5269,219.9723,140.1043,0,U,58648,999,14178,.11576E-3,.3008E-4,0
TIANMU-1 19,2023-208A,2026-07-15T05:54:38.426976,15.31976164,.0004599,97.4530,312.7001,198.2260,161.8818,0,U,58660,999,14162,.15243E-3,.4627E-4,0
TIANMU-1 20,2023-208B,2026-07-15T04:43:44.777856,15.33164446,.0006334,97.4472,313.3151,212.0376,148.0482,0,U,58661,999,14171,.14607E-3,.4601E-4,0
