FENGYUN 3D              
1 43010U 17072A   26196.19626983  .00000405  00000+0  21299-3 0  9997
2 43010  99.0137 171.1272 0001539  14.2282 345.8936 14.19745800448965
NOAA 20 (JPSS-1)        
1 43013U 17073A   26196.12535172  .00000006  00000+0  23989-4 0  9999
2 43013  98.7772 135.3404 0001386 124.8227 235.3079 14.19516423448435
GOES 17                 
1 43226U 18022A   26196.11163559 -.00000192  00000+0  00000+0 0  9996
2 43226   1.0066  85.2588 0000546  80.6796  77.7183  1.00271073 30703
SENTINEL-3B             
1 43437U 18039A   26196.17151757  .00000038  00000+0  33813-4 0  9992
2 43437  98.6236 263.3004 0001135 119.7364 240.3929 14.26736282428112
FENGYUN 2H              
1 43491U 18050A   26196.07375463 -.00000138  00000+0  00000+0 0  9995
2 43491   3.1003  78.7376 0002319 134.4195 185.4544  1.00267153 29715
METOP-C                 
1 43689U 18087A   26196.15254764  .00000046  00000+0  40694-4 0  9998
2 43689  98.6630 255.2429 0002217  93.7709 266.3722 14.21519056398800
GEO-KOMPSAT-2A          
1 43823U 18100A   26195.72708625 -.00000352  00000+0  00000+0 0  9999
2 43823   0.0287 108.8702 0001961 352.7689 220.9550  1.00269956 27901
METEOR-M2 2             
1 44387U 19038A   26196.20257131  .00000096  00000+0  61274-4 0  9990
2 44387  98.9152 183.9034 0000755   3.3896 356.7288 14.24373215365281
ARKTIKA-M 1             
1 47719U 21016A   26195.40739072 -.00000301  00000+0  00000+0 0  9996
2 47719  63.2662  53.6722 7297332 270.0591  14.4994  2.00611590 39330
FENGYUN 3E              
1 49008U 21062A   26196.17704457 -.00000044  00000+0 -12976-6 0  9991
2 49008  98.7495 199.2735 0002278  39.2029 320.9312 14.19906463260556
GOES 18                 
1 51850U 22021A   26195.95956965  .00000088  00000+0  00000+0 0  9997
2 51850   0.0194 126.7770 0000400  62.2107 312.2647  1.00270846  6871
NOAA 21 (JPSS-2)        
1 54234U 22150A   26196.15765047  .00000002  00000+0  21595-4 0  9994
2 54234  98.7060 134.4771 0002836 104.6678 255.4813 14.19541003190510
METEOSAT-12 (MTG-I1)    
1 54743U 22170C   26196.12927456 -.00000018  00000+0  00000+0 0  9993
2 54743   0.7250  19.6891 0003806  82.0469 237.4624  1.00267673 13250
TIANMU-1 03             
1 55973U 23039A   26196.17516962  .00008724  00000+0  16853-3 0  9993
2 55973  97.5236  11.2576 0002580  27.1290 333.0094 15.48042065185169
TIANMU-1 04             
1 55974U 23039B   26196.21821650  .00009605  00000+0  18136-3 0  9997
2 55974  97.5175  10.4583 0003039  12.7593 347.3733 15.48669436185184
TIANMU-1 05             
1 55975U 23039C   26196.22195208  .00008905  00000+0  17243-3 0  9992
2 55975  97.5220  10.9106 0002960  45.5126 314.6365 15.47967878185155
TIANMU-1 06             
1 55976U 23039D   26196.22340225  .00009419  00000+0  17853-3 0  9992
2 55976  97.5228  11.5763 0003059  36.8367 323.3093 15.48566341185189
FENGYUN 3G              
1 56232U 23055A   26196.15554572  .00015227  00000+0  23916-3 0  9991
2 56232  49.9903 201.7792 0007042  55.6665 304.4968 15.53786933184353
METEOR-M2 3             
1 57166U 23091A   26196.20336499 -.00000008  00000+0  15238-4 0  9991
2 57166  98.6068 250.6062 0005144  90.2704 269.9065 14.24048940158503
TIANMU-1 07             
1 57399U 23101A   26196.15809360  .00003545  00000+0  12419-3 0  9992
2 57399  97.2577 246.1871 0003761  64.9212 295.2419 15.30115492165928
TIANMU-1 08             
1 57400U 23101B   26196.19005749  .00003444  00000+0  12069-3 0  9997
2 57400  97.2566 245.9848 0004629  46.3529 313.8095 15.30119027165924
TIANMU-1 09             
1 57401U 23101C   26196.17281925  .00003600  00000+0  12587-3 0  9997
2 57401  97.2524 245.3696 0004358  64.9775 295.1918 15.30160476165922
TIANMU-1 10             
1 57402U 23101D   26196.20636106  .00003649  00000+0  12766-3 0  9999
2 57402  97.2603 246.4815 0005652  54.2484 305.9282 15.30134087165926
FENGYUN 3F              
1 57490U 23111A   26196.16028808  .00000015  00000+0  27334-4 0  9998
2 57490  98.6825 265.6462 0001276  76.1787 283.9532 14.19943403152837
ARKTIKA-M 2             
1 58584U 23198A   26195.17805492  .00000133  00000+0  00000+0 0  9997
2 58584  63.2180 151.3455 6910425 267.3421  18.7368  2.00608202 18864
TIANMU-1 11             
1 58645U 23205A   26196.22891280  .00002894  00000+0  11103-3 0  9997
2 58645  97.3439 217.3497 0006787 261.7694  98.2776 15.27263888141804
TIANMU-1 12             
1 58646U 23205B   26196.20131618  .00003022  00000+0  11643-3 0  9991
2 58646  97.3429 217.0695 0005799 234.5320 125.5379 15.27095401141781
TIANMU-1 13             
1 58647U 23205C   26196.23475814  .00003076  00000+0  11849-3 0  9991
2 58647  97.3456 217.3824 0005804 212.0674 148.0213 15.27088398141783
TIANMU-1 14             
1 58648U 23205D   26196.21915017  .00003008  00000+0  11576-3 0  9996
2 58648  97.3392 216.5269 0006435 219.9723 140.1043 15.27131988141787
TIANMU-1 19             
1 58660U 23208A   26196.24627809  .00004627  00000+0  15243-3 0  9998
2 58660  97.4530 312.7001 0004599 198.2260 161.8818 15.31976164141624
TIANMU-1 20             
1 58661U 23208B   26196.19704604  .00004601  00000+0  14607-3 0  9997
2 58661  97.4472 313.3151 0006334 212.0376 148.0482 15.33164446141713
